[{"OBJECT_NAME":"AETHER-2","OBJECT_ID":"2023-174AV","EPOCH":"2026-03-09T17:13:49.792224","MEAN_MOTION":15.33264165,"ECCENTRICITY":0.00086301,"INCLINATION":97.3931,"RA_OF_ASC_NODE":151.9008,"ARG_OF_PERICENTER":139.5247,"MEAN_ANOMALY":220.6639,"EPHEMERIS_TYPE":0,"CLASSIFICATION_TYPE":"U","NORAD_CAT_ID":58299,"ELEMENT_SET_NO":999,"REV_AT_EPOCH":12998,"BSTAR":0.00026165949,"MEAN_MOTION_DOT":8.341e-5,"MEAN_MOTION_DDOT":0},{"OBJECT_NAME":"STARLINK-35748","OBJECT_ID":"2025-244A","EPOCH":"2026-03-09T17:14:45.170304","MEAN_MOTION":15.30162555,"ECCENTRICITY":0.00019927,"INCLINATION":53.1589,"RA_OF_ASC_NODE":229.8013,"ARG_OF_PERICENTER":158.7664,"MEAN_ANOMALY":201.342,"EPHEMERIS_TYPE":0,"CLASSIFICATION_TYPE":"U","NORAD_CAT_ID":66206,"ELEMENT_SET_NO":999,"REV_AT_EPOCH":2166,"BSTAR":0.00060299912,"MEAN_MOTION_DOT":0.00017522,"MEAN_MOTION_DDOT":0}]
