AETHER-2                
1 58299U 23174AV  26068.71793741  .00008341  00000+0  26166-3 0  9990
2 58299  97.3931 151.9008 0008630 139.5247 220.6639 15.33264165129982
STARLINK-35748          
1 66206U 25244A   26068.71857836  .00017522  00000+0  60300-3 0  9992
2 66206  53.1589 229.8013 0001993 158.7664 201.3420 15.30162555 21667
